[
  {
    "COMMENT": "GENERATED VIA SPACETRACK.ORG API",
    "ORIGINATOR": "18 SPCS",
    "NORAD_CAT_ID": "36508",
    "OBJECT_NAME": "CRYOSAT 2",
    "OBJECT_TYPE": "PAYLOAD",
    "CLASSIFICATION_TYPE": "U",
    "INTLDES": "10013A",
    "EPOCH": "2023-06-03 02:59:55",
    "EPOCH_MICROSECONDS": "417344",
    "MEAN_MOTION": "14.51910091",
    "ECCENTRICITY": "0.0005891",
    "INCLINATION": "92.0208",
    "RA_OF_ASC_NODE": "9.0084",
    "ARG_OF_PERICENTER": "118.3722",
    "MEAN_ANOMALY": "241.808",
    "EPHEMERIS_TYPE": "0",
    "ELEMENT_SET_NO": "999",
    "REV_AT_EPOCH": "69705",
    "BSTAR": "0.000053819",
    "MEAN_MOTION_DOT": "0.0000022",
    "MEAN_MOTION_DDOT": "0",
    "FILE": "3923743",
    "TLE_LINE0": "0 CRYOSAT 2",
    "TLE_LINE1": "1 36508U 10013A   23154.12494696  .00000220  00000-0  53819-4 0  9997",
    "TLE_LINE2": "2 36508  92.0208   9.0084 0005891 118.3722 241.8080 14.51910091697054",
    "OBJECT_ID": "2010-013A",
    "OBJECT_NUMBER": "36508",
    "SEMIMAJOR_AXIS": "7097.554",
    "PERIOD": "99.180",
    "APOGEE": "723.600",
    "PERIGEE": "715.238",
    "DECAYED": "0"
  },
  {
    "COMMENT": "GENERATED VIA SPACETRACK.ORG API",
    "ORIGINATOR": "18 SPCS",
    "NORAD_CAT_ID": "36508",
    "OBJECT_NAME": "CRYOSAT 2",
    "OBJECT_TYPE": "PAYLOAD",
    "CLASSIFICATION_TYPE": "U",
    "INTLDES": "10013A",
    "EPOCH": "2023-06-03 14:34:38",
    "EPOCH_MICROSECONDS": "57952",
    "MEAN_MOTION": "14.51910213",
    "ECCENTRICITY": "0.0005928",
    "INCLINATION": "92.0207",
    "RA_OF_ASC_NODE": "9.1247",
    "ARG_OF_PERICENTER": "117.3625",
    "MEAN_ANOMALY": "242.8186",
    "EPHEMERIS_TYPE": "0",
    "ELEMENT_SET_NO": "999",
    "REV_AT_EPOCH": "69708",
    "BSTAR": "0.000051809",
    "MEAN_MOTION_DOT": "0.00000212",
    "MEAN_MOTION_DDOT": "0",
    "FILE": "3924076",
    "TLE_LINE0": "0 CRYOSAT 2",
    "TLE_LINE1": "1 36508U 10013A   23154.60738493  .00000212  00000-0  51809-4 0  9994",
    "TLE_LINE2": "2 36508  92.0207   9.1247 0005928 117.3625 242.8186 14.51910213697084",
    "OBJECT_ID": "2010-013A",
    "OBJECT_NUMBER": "36508",
    "SEMIMAJOR_AXIS": "7097.553",
    "PERIOD": "99.180",
    "APOGEE": "723.626",
    "PERIGEE": "715.211",
    "DECAYED": "0"
  },
  {
    "COMMENT": "GENERATED VIA SPACETRACK.ORG API",
    "ORIGINATOR": "18 SPCS",
    "NORAD_CAT_ID": "36508",
    "OBJECT_NAME": "CRYOSAT 2",
    "OBJECT_TYPE": "PAYLOAD",
    "CLASSIFICATION_TYPE": "U",
    "INTLDES": "10013A",
    "EPOCH": "2023-06-03 21:11:36",
    "EPOCH_MICROSECONDS": "701952",
    "MEAN_MOTION": "14.51910353",
    "ECCENTRICITY": "0.0005944",
    "INCLINATION": "92.0207",
    "RA_OF_ASC_NODE": "9.1912",
    "ARG_OF_PERICENTER": "116.7265",
    "MEAN_ANOMALY": "243.4552",
    "EPHEMERIS_TYPE": "0",
    "ELEMENT_SET_NO": "999",
    "REV_AT_EPOCH": "69712",
    "BSTAR": "0.000054702",
    "MEAN_MOTION_DOT": "0.00000223",
    "MEAN_MOTION_DDOT": "0",
    "FILE": "3924324",
    "TLE_LINE0": "0 CRYOSAT 2",
    "TLE_LINE1": "1 36508U 10013A   23154.88306368  .00000223  00000-0  54702-4 0  9993",
    "TLE_LINE2": "2 36508  92.0207   9.1912 0005944 116.7265 243.4552 14.51910353697128",
    "OBJECT_ID": "2010-013A",
    "OBJECT_NUMBER": "36508",
    "SEMIMAJOR_AXIS": "7097.553",
    "PERIOD": "99.180",
    "APOGEE": "723.637",
    "PERIGEE": "715.199",
    "DECAYED": "0"
  },
  {
    "COMMENT": "GENERATED VIA SPACETRACK.ORG API",
    "ORIGINATOR": "18 SPCS",
    "NORAD_CAT_ID": "36508",
    "OBJECT_NAME": "CRYOSAT 2",
    "OBJECT_TYPE": "PAYLOAD",
    "CLASSIFICATION_TYPE": "U",
    "INTLDES": "10013A",
    "EPOCH": "2023-06-04 10:25:33",
    "EPOCH_MICROSECONDS": "987360",
    "MEAN_MOTION": "14.51910621",
    "ECCENTRICITY": "0.0005985",
    "INCLINATION": "92.0206",
    "RA_OF_ASC_NODE": "9.3242",
    "ARG_OF_PERICENTER": "115.5587",
    "MEAN_ANOMALY": "244.6239",
    "EPHEMERIS_TYPE": "0",
    "ELEMENT_SET_NO": "999",
    "REV_AT_EPOCH": "69724",
    "BSTAR": "0.000058058",
    "MEAN_MOTION_DOT": "0.00000237",
    "MEAN_MOTION_DDOT": "0",
    "FILE": "3924818",
    "TLE_LINE0": "0 CRYOSAT 2",
    "TLE_LINE1": "1 36508U 10013A   23155.43442115  .00000237  00000-0  58058-4 0  9999",
    "TLE_LINE2": "2 36508  92.0206   9.3242 0005985 115.5587 244.6239 14.51910621697240",
    "OBJECT_ID": "2010-013A",
    "OBJECT_NUMBER": "36508",
    "SEMIMAJOR_AXIS": "7097.552",
    "PERIOD": "99.180",
    "APOGEE": "723.665",
    "PERIGEE": "715.169",
    "DECAYED": "0"
  },
  {
    "COMMENT": "GENERATED VIA SPACETRACK.ORG API",
    "ORIGINATOR": "18 SPCS",
    "NORAD_CAT_ID": "36508",
    "OBJECT_NAME": "CRYOSAT 2",
    "OBJECT_TYPE": "PAYLOAD",
    "CLASSIFICATION_TYPE": "U",
    "INTLDES": "10013A",
    "EPOCH": "2023-06-04 13:44:03",
    "EPOCH_MICROSECONDS": "307200",
    "MEAN_MOTION": "14.51910638",
    "ECCENTRICITY": "0.0005993",
    "INCLINATION": "92.0206",
    "RA_OF_ASC_NODE": "9.3574",
    "ARG_OF_PERICENTER": "115.2434",
    "MEAN_ANOMALY": "244.9395",
    "EPHEMERIS_TYPE": "0",
    "ELEMENT_SET_NO": "999",
    "REV_AT_EPOCH": "69722",
    "BSTAR": "0.000055407",
    "MEAN_MOTION_DOT": "0.00000226",
    "MEAN_MOTION_DDOT": "0",
    "FILE": "3924842",
    "TLE_LINE0": "0 CRYOSAT 2",
    "TLE_LINE1": "1 36508U 10013A   23155.57226050  .00000226  00000-0  55407-4 0  9995",
    "TLE_LINE2": "2 36508  92.0206   9.3574 0005993 115.2434 244.9395 14.51910638697227",
    "OBJECT_ID": "2010-013A",
    "OBJECT_NUMBER": "36508",
    "SEMIMAJOR_AXIS": "7097.552",
    "PERIOD": "99.180",
    "APOGEE": "723.671",
    "PERIGEE": "715.163",
    "DECAYED": "0"
  },
  {
    "COMMENT": "GENERATED VIA SPACETRACK.ORG API",
    "ORIGINATOR": "18 SPCS",
    "NORAD_CAT_ID": "36508",
    "OBJECT_NAME": "CRYOSAT 2",
    "OBJECT_TYPE": "PAYLOAD",
    "CLASSIFICATION_TYPE": "U",
    "INTLDES": "10013A",
    "EPOCH": "2023-06-04 22:00:16",
    "EPOCH_MICROSECONDS": "602912",
    "MEAN_MOTION": "14.51910788",
    "ECCENTRICITY": "0.0006019",
    "INCLINATION": "92.0206",
    "RA_OF_ASC_NODE": "9.4405",
    "ARG_OF_PERICENTER": "114.5103",
    "MEAN_ANOMALY": "245.6732",
    "EPHEMERIS_TYPE": "0",
    "ELEMENT_SET_NO": "999",
    "REV_AT_EPOCH": "69727",
    "BSTAR": "0.00005661",
    "MEAN_MOTION_DOT": "0.00000231",
    "MEAN_MOTION_DDOT": "0",
    "FILE": "3925173",
    "TLE_LINE0": "0 CRYOSAT 2",
    "TLE_LINE1": "1 36508U 10013A   23155.91685883  .00000231  00000-0  56610-4 0  9999",
    "TLE_LINE2": "2 36508  92.0206   9.4405 0006019 114.5103 245.6732 14.51910788697270",
    "OBJECT_ID": "2010-013A",
    "OBJECT_NUMBER": "36508",
    "SEMIMAJOR_AXIS": "7097.552",
    "PERIOD": "99.180",
    "APOGEE": "723.689",
    "PERIGEE": "715.144",
    "DECAYED": "0"
  },
  {
    "COMMENT": "GENERATED VIA SPACETRACK.ORG API",
    "ORIGINATOR": "18 SPCS",
    "NORAD_CAT_ID": "36508",
    "OBJECT_NAME": "CRYOSAT 2",
    "OBJECT_TYPE": "PAYLOAD",
    "CLASSIFICATION_TYPE": "U",
    "INTLDES": "10013A",
    "EPOCH": "2023-06-05 12:53:28",
    "EPOCH_MICROSECONDS": "527072",
    "MEAN_MOTION": "14.51911127",
    "ECCENTRICITY": "0.0006054",
    "INCLINATION": "92.0205",
    "RA_OF_ASC_NODE": "9.5901",
    "ARG_OF_PERICENTER": "113.17",
    "MEAN_ANOMALY": "247.0146",
    "EPHEMERIS_TYPE": "0",
    "ELEMENT_SET_NO": "999",
    "REV_AT_EPOCH": "69740",
    "BSTAR": "0.000059407",
    "MEAN_MOTION_DOT": "0.00000242",
    "MEAN_MOTION_DDOT": "0",
    "FILE": "3925669",
    "TLE_LINE0": "0 CRYOSAT 2",
    "TLE_LINE1": "1 36508U 10013A   23156.53713573  .00000242  00000-0  59407-4 0  9995",
    "TLE_LINE2": "2 36508  92.0205   9.5901 0006054 113.1700 247.0146 14.51911127697406",
    "OBJECT_ID": "2010-013A",
    "OBJECT_NUMBER": "36508",
    "SEMIMAJOR_AXIS": "7097.550",
    "PERIOD": "99.180",
    "APOGEE": "723.712",
    "PERIGEE": "715.119",
    "DECAYED": "0"
  },
  {
    "COMMENT": "GENERATED VIA SPACETRACK.ORG API",
    "ORIGINATOR": "18 SPCS",
    "NORAD_CAT_ID": "36508",
    "OBJECT_NAME": "CRYOSAT 2",
    "OBJECT_TYPE": "PAYLOAD",
    "CLASSIFICATION_TYPE": "U",
    "INTLDES": "10013A",
    "EPOCH": "2023-06-05 14:32:43",
    "EPOCH_MICROSECONDS": "184832",
    "MEAN_MOTION": "14.51911158",
    "ECCENTRICITY": "0.0006058",
    "INCLINATION": "92.0205",
    "RA_OF_ASC_NODE": "9.6067",
    "ARG_OF_PERICENTER": "113.0202",
    "MEAN_ANOMALY": "247.1645",
    "EPHEMERIS_TYPE": "0",
    "ELEMENT_SET_NO": "999",
    "REV_AT_EPOCH": "69737",
    "BSTAR": "0.000058914",
    "MEAN_MOTION_DOT": "0.0000024",
    "MEAN_MOTION_DDOT": "0",
    "FILE": "3925691",
    "TLE_LINE0": "0 CRYOSAT 2",
    "TLE_LINE1": "1 36508U 10013A   23156.60605538  .00000240  00000-0  58914-4 0  9994",
    "TLE_LINE2": "2 36508  92.0205   9.6067 0006058 113.0202 247.1645 14.51911158697375",
    "OBJECT_ID": "2010-013A",
    "OBJECT_NUMBER": "36508",
    "SEMIMAJOR_AXIS": "7097.550",
    "PERIOD": "99.180",
    "APOGEE": "723.715",
    "PERIGEE": "715.116",
    "DECAYED": "0"
  },
  {
    "COMMENT": "GENERATED VIA SPACETRACK.ORG API",
    "ORIGINATOR": "18 SPCS",
    "NORAD_CAT_ID": "36508",
    "OBJECT_NAME": "CRYOSAT 2",
    "OBJECT_TYPE": "PAYLOAD",
    "CLASSIFICATION_TYPE": "U",
    "INTLDES": "10013A",
    "EPOCH": "2023-06-05 21:09:41",
    "EPOCH_MICROSECONDS": "809824",
    "MEAN_MOTION": "14.51911309",
    "ECCENTRICITY": "0.0006076",
    "INCLINATION": "92.0205",
    "RA_OF_ASC_NODE": "9.6732",
    "ARG_OF_PERICENTER": "112.4259",
    "MEAN_ANOMALY": "247.7592",
    "EPHEMERIS_TYPE": "0",
    "ELEMENT_SET_NO": "999",
    "REV_AT_EPOCH": "69741",
    "BSTAR": "0.000060035",
    "MEAN_MOTION_DOT": "0.00000245",
    "MEAN_MOTION_DDOT": "0",
    "FILE": "3925751",
    "TLE_LINE0": "0 CRYOSAT 2",
    "TLE_LINE1": "1 36508U 10013A   23156.88173391  .00000245  00000-0  60035-4 0  9993",
    "TLE_LINE2": "2 36508  92.0205   9.6732 0006076 112.4259 247.7592 14.51911309697419",
    "OBJECT_ID": "2010-013A",
    "OBJECT_NUMBER": "36508",
    "SEMIMAJOR_AXIS": "7097.550",
    "PERIOD": "99.180",
    "APOGEE": "723.727",
    "PERIGEE": "715.102",
    "DECAYED": "0"
  }
]